[{"OBJECT_NAME":"SAOCOM 1A","OBJECT_ID":"2018-076A","EPOCH":"2026-04-01T20:22:42.698784","MEAN_MOTION":14.82143729,"ECCENTRICITY":0.0001362,"INCLINATION":97.8899,"RA_OF_ASC_NODE":279.6951,"ARG_OF_PERICENTER":86.6751,"MEAN_ANOMALY":273.4618,"EPHEMERIS_TYPE":0,"CLASSIFICATION_TYPE":"U","NORAD_CAT_ID":43641,"ELEMENT_SET_NO":999,"REV_AT_EPOCH":40479,"BSTAR":-5.7203e-5,"MEAN_MOTION_DOT":-5.07e-6,"MEAN_MOTION_DDOT":0},{"OBJECT_NAME":"H-2A R/B","OBJECT_ID":"2018-084L","EPOCH":"2026-04-01T04:30:25.375680","MEAN_MOTION":15.42318515,"ECCENTRICITY":0.00235073,"INCLINATION":98.87,"RA_OF_ASC_NODE":313.3988,"ARG_OF_PERICENTER":306.3863,"MEAN_ANOMALY":53.5211,"EPHEMERIS_TYPE":0,"CLASSIFICATION_TYPE":"U","NORAD_CAT_ID":43682,"ELEMENT_SET_NO":999,"REV_AT_EPOCH":40924,"BSTAR":0.00043580997,"MEAN_MOTION_DOT":0.0001887,"MEAN_MOTION_DDOT":0},{"OBJECT_NAME":"SAOCOM 1B","OBJECT_ID":"2020-059A","EPOCH":"2026-04-01T19:30:29.877984","MEAN_MOTION":14.82147469,"ECCENTRICITY":0.0001469,"INCLINATION":97.8887,"RA_OF_ASC_NODE":278.7563,"ARG_OF_PERICENTER":85.9209,"MEAN_ANOMALY":274.2171,"EPHEMERIS_TYPE":0,"CLASSIFICATION_TYPE":"U","NORAD_CAT_ID":46265,"ELEMENT_SET_NO":999,"REV_AT_EPOCH":30217,"BSTAR":0.00014891,"MEAN_MOTION_DOT":1.133e-5,"MEAN_MOTION_DDOT":0},{"OBJECT_NAME":"CSS (TIANHE)","OBJECT_ID":"2021-035A","EPOCH":"2026-04-01T08:38:43.102176","MEAN_MOTION":15.61804306,"ECCENTRICITY":0.0003722,"INCLINATION":41.467,"RA_OF_ASC_NODE":70.0996,"ARG_OF_PERICENTER":85.9086,"MEAN_ANOMALY":274.2179,"EPHEMERIS_TYPE":0,"CLASSIFICATION_TYPE":"U","NORAD_CAT_ID":48274,"ELEMENT_SET_NO":999,"REV_AT_EPOCH":28115,"BSTAR":0.00027286,"MEAN_MOTION_DOT":0.00024066,"MEAN_MOTION_DDOT":0},{"OBJECT_NAME":"COSMOS 2550","OBJECT_ID":"2021-056A","EPOCH":"2026-04-01T11:17:21.715008","MEAN_MOTION":15.33839535,"ECCENTRICITY":0.0008328,"INCLINATION":67.1445,"RA_OF_ASC_NODE":331.9738,"ARG_OF_PERICENTER":269.3207,"MEAN_ANOMALY":90.6993,"EPHEMERIS_TYPE":0,"CLASSIFICATION_TYPE":"U","NORAD_CAT_ID":48865,"ELEMENT_SET_NO":999,"REV_AT_EPOCH":26695,"BSTAR":0.00017705,"MEAN_MOTION_DOT":5.639e-5,"MEAN_MOTION_DDOT":0},{"OBJECT_NAME":"CZ-2C R/B","OBJECT_ID":"2022-058K","EPOCH":"2026-04-01T13:56:23.959104","MEAN_MOTION":15.5599958,"ECCENTRICITY":0.0041331,"INCLINATION":50.1881,"RA_OF_ASC_NODE":200.3863,"ARG_OF_PERICENTER":299.0451,"MEAN_ANOMALY":60.6383,"EPHEMERIS_TYPE":0,"CLASSIFICATION_TYPE":"U","NORAD_CAT_ID":52794,"ELEMENT_SET_NO":999,"REV_AT_EPOCH":21369,"BSTAR":0.0005954,"MEAN_MOTION_DOT":0.00043661,"MEAN_MOTION_DDOT":0},{"OBJECT_NAME":"CZ-2C R/B","OBJECT_ID":"2022-132E","EPOCH":"2026-04-01T17:47:05.586432","MEAN_MOTION":15.64035412,"ECCENTRICITY":0.0016651,"INCLINATION":97.2951,"RA_OF_ASC_NODE":95.795,"ARG_OF_PERICENTER":14.7582,"MEAN_ANOMALY":345.416,"EPHEMERIS_TYPE":0,"CLASSIFICATION_TYPE":"U","NORAD_CAT_ID":54039,"ELEMENT_SET_NO":999,"REV_AT_EPOCH":19397,"BSTAR":0.0005056,"MEAN_MOTION_DOT":0.00048137,"MEAN_MOTION_DDOT":0},{"OBJECT_NAME":"GSLV R/B","OBJECT_ID":"2022-138AN","EPOCH":"2026-04-01T04:23:46.988736","MEAN_MOTION":14.96915376,"ECCENTRICITY":0.00239397,"INCLINATION":87.3855,"RA_OF_ASC_NODE":158.8315,"ARG_OF_PERICENTER":72.6423,"MEAN_ANOMALY":287.7425,"EPHEMERIS_TYPE":0,"CLASSIFICATION_TYPE":"U","NORAD_CAT_ID":54149,"ELEMENT_SET_NO":999,"REV_AT_EPOCH":18729,"BSTAR":0.00025928579,"MEAN_MOTION_DOT":3.021e-5,"MEAN_MOTION_DDOT":0},{"OBJECT_NAME":"XRISM","OBJECT_ID":"2023-137A","EPOCH":"2026-04-01T19:37:19.844256","MEAN_MOTION":15.11774375,"ECCENTRICITY":0.0007914,"INCLINATION":31.0013,"RA_OF_ASC_NODE":134.0398,"ARG_OF_PERICENTER":271.7893,"MEAN_ANOMALY":88.1839,"EPHEMERIS_TYPE":0,"CLASSIFICATION_TYPE":"U","NORAD_CAT_ID":57800,"ELEMENT_SET_NO":999,"REV_AT_EPOCH":14129,"BSTAR":0.0003574,"MEAN_MOTION_DOT":6.352e-5,"MEAN_MOTION_DDOT":0},{"OBJECT_NAME":"ACS3","OBJECT_ID":"2024-077B","EPOCH":"2026-04-01T12:43:57.945792","MEAN_MOTION":13.90722879,"ECCENTRICITY":0.0073127,"INCLINATION":97.196,"RA_OF_ASC_NODE":27.5089,"ARG_OF_PERICENTER":24.928,"MEAN_ANOMALY":335.5388,"EPHEMERIS_TYPE":0,"CLASSIFICATION_TYPE":"U","NORAD_CAT_ID":59588,"ELEMENT_SET_NO":999,"REV_AT_EPOCH":9737,"BSTAR":0.029532,"MEAN_MOTION_DOT":0.00037824,"MEAN_MOTION_DDOT":0},{"OBJECT_NAME":"HTV-X1","OBJECT_ID":"2025-241A","EPOCH":"2026-04-01T12:57:04.456224","MEAN_MOTION":15.32489575,"ECCENTRICITY":0.0007227,"INCLINATION":51.6374,"RA_OF_ASC_NODE":322.9356,"ARG_OF_PERICENTER":261.2485,"MEAN_ANOMALY":98.7678,"EPHEMERIS_TYPE":0,"CLASSIFICATION_TYPE":"U","NORAD_CAT_ID":66174,"ELEMENT_SET_NO":999,"REV_AT_EPOCH":2444,"BSTAR":5.1596e-5,"MEAN_MOTION_DOT":1.271e-5,"MEAN_MOTION_DDOT":0},{"OBJECT_NAME":"SZ-21 MODULE","OBJECT_ID":"2025-246C","EPOCH":"2026-04-01T06:45:24.481440","MEAN_MOTION":15.70350675,"ECCENTRICITY":0.000248,"INCLINATION":41.4741,"RA_OF_ASC_NODE":64.1049,"ARG_OF_PERICENTER":219.0022,"MEAN_ANOMALY":141.0642,"EPHEMERIS_TYPE":0,"CLASSIFICATION_TYPE":"U","NORAD_CAT_ID":66515,"ELEMENT_SET_NO":999,"REV_AT_EPOCH":2162,"BSTAR":0.00033251,"MEAN_MOTION_DOT":0.00041682,"MEAN_MOTION_DDOT":0}]
