SAOCOM 1A               
1 43641U 18076A   26091.84910531 -.00000507  00000+0 -57203-4 0  9993
2 43641  97.8899 279.6951 0001362  86.6751 273.4618 14.82143729404790
H-2A R/B                
1 43682U 18084L   26091.18779370  .00018870  00000+0  43581-3 0  9991
2 43682  98.8700 313.3988 0023507 306.3863  53.5211 15.42318515409249
SAOCOM 1B               
1 46265U 20059A   26091.81284581  .00001133  00000+0  14891-3 0  9997
2 46265  97.8887 278.7563 0001469  85.9209 274.2171 14.82147469302176
CSS (TIANHE)            
1 48274U 21035A   26091.36022109  .00024066  00000+0  27286-3 0  9992
2 48274  41.4670  70.0996 0003722  85.9086 274.2179 15.61804306281153
COSMOS 2550             
1 48865U 21056A   26091.47039022  .00005639  00000+0  17705-3 0  9995
2 48865  67.1445 331.9738 0008328 269.3207  90.6993 15.33839535266953
CZ-2C R/B               
1 52794U 22058K   26091.58083286  .00043661  00000+0  59540-3 0  9997
2 52794  50.1881 200.3863 0041331 299.0451  60.6383 15.55999580213699
CZ-2C R/B               
1 54039U 22132E   26091.74103688  .00048137  00000+0  50560-3 0  9997
2 54039  97.2951  95.7950 0016651  14.7582 345.4160 15.64035412193970
GSLV R/B                
1 54149U 22138AN  26091.18318274  .00003021  00000+0  25929-3 0  9996
2 54149  87.3855 158.8315 0023939  72.6423 287.7425 14.96915376187295
XRISM                   
1 57800U 23137A   26091.81759079  .00006352  00000+0  35740-3 0  9997
2 57800  31.0013 134.0398 0007914 271.7893  88.1839 15.11774375141291
ACS3                    
1 59588U 24077B   26091.53053178  .00037824  00000+0  29532-1 0  9990
2 59588  97.1960  27.5089 0073127  24.9280 335.5388 13.90722879 97374
HTV-X1                  
1 66174U 25241A   26091.53963491  .00001271  00000+0  51596-4 0  9996
2 66174  51.6374 322.9356 0007227 261.2485  98.7678 15.32489575 24446
SZ-21 MODULE            
1 66515U 25246C   26091.28153335  .00041682  00000+0  33251-3 0  9997
2 66515  41.4741  64.1049 0002480 219.0022 141.0642 15.70350675 21628
